     2              NAVIGATION DATA                         RINEX VERSION / TYPE
CCRINEXN V1.6.0 UX  CDDIS               27-SEP-08 02:51     PGM / RUN BY / DATE 
IGS BROADCAST EPHEMERIS FILE                                COMMENT             
    0.8382E-08  0.1490E-07 -0.5960E-07 -0.5960E-07          ION ALPHA           
    0.8397E+05  0.1638E+05 -0.1311E+06 -0.6554E+05          ION BETA            
    0.931322574616E-09 0.444089209850E-14   589824     1498 DELTA-UTC: A0,A1,T,W
    14                                                      LEAP SECONDS        
                                                            END OF HEADER       
31 08  9 26  6  0  0.0-0.287112779915E-04-0.238742359215E-11 0.000000000000E+00
    0.760000000000E+02 0.457812500000E+02 0.475019786481E-08-0.887096853316E+00
    0.243820250034E-05 0.671166821849E-02 0.325776636600E-05 0.515354197121E+04
    0.453600000000E+06-0.409781932831E-07 0.843483025837E+00-0.111758708954E-07
    0.969402368254E+00 0.323906250000E+03-0.123805778795E+01-0.851321175230E-08
    0.188936441390E-09 0.100000000000E+01 0.149800000000E+04 0.000000000000E+00
    0.240000000000E+01 0.000000000000E+00-0.130385160446E-07 0.760000000000E+02
    0.446406000000E+06 0.400000000000E+01 0.000000000000E+00 0.000000000000E+00
32 08  9 26  6  0  0.0 0.316526275128E-03 0.113686837722E-12 0.000000000000E+00
    0.720000000000E+02-0.331562500000E+02 0.470948188311E-08 0.106480536096E+00
   -0.177696347237E-05 0.139415977756E-01 0.861473381519E-05 0.515375164413E+04
    0.453600000000E+06-0.987201929092E-07-0.116211076891E+01-0.111758708954E-06
    0.967158573762E+00 0.222468750000E+03-0.128222393723E+01-0.833784730481E-08
   -0.449661587353E-09 0.100000000000E+01 0.149800000000E+04 0.000000000000E+00
    0.240000000000E+01 0.000000000000E+00-0.325962901115E-08 0.720000000000E+02
    0.446406000000E+06 0.400000000000E+01 0.000000000000E+00 0.000000000000E+00
 7 08  9 26  7 59 44.0 0.193249434233E-04 0.193267624127E-11 0.000000000000E+00
    0.100000000000E+01 0.434375000000E+02 0.485020203038E-08 0.463897208255E+00
    0.204518437386E-05 0.223111209925E-02 0.311248004436E-05 0.515369041252E+04
    0.460784000000E+06 0.204890966415E-07 0.846698461258E+00-0.596046447754E-07
    0.963944557371E+00 0.320375000000E+03 0.274130222373E+01-0.848356766036E-08
    0.126076680171E-09 0.100000000000E+01 0.149800000000E+04 0.000000000000E+00
    0.240000000000E+01 0.000000000000E+00-0.107102096081E-07 0.100000000000E+01
    0.455886000000E+06 0.400000000000E+01 0.000000000000E+00 0.000000000000E+00
 9 08  9 26  7 59 44.0 0.168061815202E-04 0.193267624127E-11 0.000000000000E+00
    0.000000000000E+00 0.583125000000E+02 0.481805783430E-08-0.654301480752E+00
    0.324659049511E-05 0.201381797669E-01 0.427663326263E-05 0.515365762711E+04
    0.460784000000E+06-0.275671482086E-06 0.810913346253E+00 0.128522515297E-06
    0.972973096738E+00 0.306437500000E+03 0.144403378327E+01-0.877179395186E-08
    0.280368821344E-09 0.100000000000E+01 0.149800000000E+04 0.000000000000E+00
    0.200000000000E+01 0.000000000000E+00-0.558793544769E-08 0.000000000000E+00
    0.459948000000E+06 0.400000000000E+01 0.000000000000E+00 0.000000000000E+00
15 08  9 26  7 59 44.0-0.183764845133E-03-0.648014975013E-11 0.000000000000E+00
    0.380000000000E+02 0.566250000000E+02 0.446768609706E-08-0.296647084112E+01
    0.303052365780E-05 0.938723445870E-03 0.120792537928E-04 0.515371242332E+04
    0.460784000000E+06 0.260770320892E-07-0.212462214201E+00 0.856816768646E-07
    0.957665048810E+00 0.142593750000E+03-0.116245678707E+01-0.799497587998E-08
    0.121790787361E-09 0.100000000000E+01 0.149800000000E+04 0.000000000000E+00
    0.200000000000E+01 0.000000000000E+00-0.977888703346E-08 0.380000000000E+02
    0.454548000000E+06 0.400000000000E+01 0.000000000000E+00 0.000000000000E+00
17 08  9 26  7 59 44.0 0.391127541661E-04 0.113686837722E-12 0.000000000000E+00
    0.160000000000E+02-0.221875000000E+01 0.416374486526E-08 0.311668496795E+01
   -0.316649675369E-07 0.383014790714E-02 0.129621475935E-04 0.515360103607E+04
    0.460784000000E+06-0.204890966415E-07 0.295532118757E+01-0.186264514923E-08
    0.960105112780E+00 0.126437500000E+03-0.279013036084E+01-0.777496671571E-08
    0.340371320689E-09 0.100000000000E+01 0.149800000000E+04 0.000000000000E+00
    0.240000000000E+01 0.000000000000E+00-0.102445483208E-07 0.160000000000E+02
    0.453606000000E+06 0.400000000000E+01 0.000000000000E+00 0.000000000000E+00
21 08  9 26  7 59 44.0 0.491379760206E-04-0.147792889038E-11 0.000000000000E+00
    0.150000000000E+02 0.476875000000E+02 0.548415700858E-08-0.646381662128E+00
    0.265426933765E-05 0.143002957338E-01 0.464916229248E-05 0.515367814255E+04
    0.460784000000E+06 0.255182385445E-06-0.227187985330E+01 0.154599547386E-06
    0.935458347355E+00 0.273281250000E+03-0.267556334025E+01-0.879000899630E-08
    0.375372778640E-09 0.100000000000E+01 0.149800000000E+04 0.000000000000E+00
    0.200000000000E+01 0.000000000000E+00-0.116415321827E-07 0.150000000000E+02
    0.453618000000E+06 0.400000000000E+01 0.000000000000E+00 0.000000000000E+00
25 08  9 26  7 59 44.0-0.125898513943E-03 0.409272615798E-10 0.000000000000E+00
    0.260000000000E+02 0.596562500000E+02 0.477841332581E-08-0.147769474415E+01
    0.316649675369E-05 0.115909851156E-01 0.384822487831E-05 0.515369160271E+04
    0.460784000000E+06-0.223517417908E-06 0.751730366301E+00 0.130385160446E-06
    0.966434730674E+00 0.309937500000E+03-0.124935694880E+01-0.848535344903E-08
    0.199651173416E-09 0.100000000000E+01 0.149800000000E+04 0.000000000000E+00
    0.240000000000E+01 0.000000000000E+00-0.745058059692E-08 0.260000000000E+02
    0.453756000000E+06 0.400000000000E+01 0.000000000000E+00 0.000000000000E+00
27 08  9 26  7 59 44.0 0.220463145524E-03 0.284217094304E-11 0.000000000000E+00
    0.150000000000E+02 0.589062500000E+02 0.458554814934E-08-0.151548179086E+01
    0.341981649399E-05 0.211946307682E-01 0.329874455929E-05 0.515372459793E+04
    0.460784000000E+06 0.150874257088E-06 0.786960985615E+00 0.465661287308E-06
    0.971024113886E+00 0.321312500000E+03-0.168466219562E+01-0.832070373357E-08
    0.187507810453E-09 0.100000000000E+01 0.149800000000E+04 0.000000000000E+00
    0.240000000000E+01 0.000000000000E+00-0.419095158577E-08 0.150000000000E+02
    0.458346000000E+06 0.400000000000E+01 0.000000000000E+00 0.000000000000E+00
29 08  9 26  7 59 44.0-0.365120358765E-04 0.113686837722E-11 0.000000000000E+00
    0.300000000000E+01-0.130937500000E+02 0.421767568312E-08-0.505463402465E+00
   -0.549480319023E-06 0.344285287429E-02 0.122450292110E-04 0.515359855080E+04
    0.460784000000E+06-0.614672899246E-07 0.296348167963E+01 0.447034835815E-07
    0.960255671920E+00 0.144031250000E+03-0.137052211175E+01-0.785854162552E-08
    0.281083136812E-09 0.100000000000E+01 0.149800000000E+04 0.000000000000E+00
    0.200000000000E+01 0.000000000000E+00-0.884756445885E-08 0.300000000000E+01
    0.455610000000E+06 0.000000000000E+00 0.000000000000E+00 0.000000000000E+00
30 08  9 26  7 59 44.0 0.986573286355E-04 0.204636307899E-11 0.000000000000E+00
    0.600000000000E+01-0.106875000000E+03 0.480627162908E-08-0.229085673154E+01
   -0.538863241673E-05 0.111309774220E-01 0.534951686859E-05 0.515368916321E+04
    0.460784000000E+06 0.189989805222E-06 0.185355476100E+01-0.540167093277E-07
    0.949455496335E+00 0.269968750000E+03 0.140176204561E+01-0.820427031222E-08
   -0.404302555110E-09 0.100000000000E+01 0.149800000000E+04 0.000000000000E+00
    0.200000000000E+01 0.000000000000E+00-0.791624188423E-08 0.600000000000E+01
    0.457518000000E+06 0.400000000000E+01 0.000000000000E+00 0.000000000000E+00
 1 08  9 26  8  0  0.0 0.280328094959E-06 0.227373675443E-11 0.000000000000E+00
    0.140000000000E+02 0.566562500000E+02 0.362300805569E-08 0.175213231829E+01
    0.292807817459E-05 0.735257891938E-02 0.114794820547E-04 0.515367239952E+04
    0.460800000000E+06-0.689178705215E-07-0.138503237924E+00-0.221654772758E-06
    0.991609793854E+00 0.175750000000E+03-0.183110921037E+01-0.754638576583E-08
    0.149649090628E-09 0.100000000000E+01 0.149800000000E+04 0.000000000000E+00
    0.685000000000E+01 0.630000000000E+02-0.372529029846E-08 0.140000000000E+02
    0.453606000000E+06 0.400000000000E+01 0.000000000000E+00 0.000000000000E+00
 2 08  9 26  8  0  0.0 0.184612814337E-03-0.272848410532E-11 0.000000000000E+00
    0.101000000000E+03 0.465937500000E+02 0.527700552275E-08 0.211784840998E+01
    0.229664146900E-05 0.875679345336E-02 0.521354377270E-05 0.515377410317E+04
    0.460800000000E+06 0.353902578354E-07-0.230531872713E+01 0.949949026108E-07
    0.942687450670E+00 0.266718750000E+03 0.264521485893E+01-0.843999441679E-08
    0.276082928534E-09 0.100000000000E+01 0.149800000000E+04 0.000000000000E+00
    0.200000000000E+01 0.000000000000E+00-0.172294676304E-07 0.101000000000E+03
    0.453618000000E+06 0.400000000000E+01 0.000000000000E+00 0.000000000000E+00
 3 08  9 26  8  0  0.0 0.288547948003E-03 0.511590769747E-11 0.000000000000E+00
    0.106000000000E+03-0.246250000000E+02 0.494770624471E-08 0.179599298101E+01
   -0.134110450745E-05 0.112343743676E-01 0.123549252749E-04 0.515371250725E+04
    0.460800000000E+06-0.229105353355E-06 0.283324170668E+01-0.109896063805E-06
    0.926447946710E+00 0.126187500000E+03 0.853317555530E+00-0.827284463156E-08
    0.875036432202E-10 0.100000000000E+01 0.149800000000E+04 0.000000000000E+00
    0.200000000000E+01 0.000000000000E+00-0.419095158577E-08 0.106000000000E+03
    0.453618000000E+06 0.400000000000E+01 0.000000000000E+00 0.000000000000E+00
